[{"OBJECT_NAME":"TITAN 4 CENTAUR R/B","OBJECT_ID":"2003-012B","EPOCH":"2026-04-03T22:11:08.994624","MEAN_MOTION":1.00589002,"ECCENTRICITY":0.00242999,"INCLINATION":11.0746,"RA_OF_ASC_NODE":23.7239,"ARG_OF_PERICENTER":277.8321,"MEAN_ANOMALY":81.8464,"EPHEMERIS_TYPE":0,"CLASSIFICATION_TYPE":"U","NORAD_CAT_ID":27712,"ELEMENT_SET_NO":999,"REV_AT_EPOCH":2504,"BSTAR":0,"MEAN_MOTION_DOT":6.4e-7,"MEAN_MOTION_DDOT":0},{"OBJECT_NAME":"INSAT-3A","OBJECT_ID":"2003-013A","EPOCH":"2026-04-04T23:56:38.763168","MEAN_MOTION":0.99796915,"ECCENTRICITY":0.00115019,"INCLINATION":8.6556,"RA_OF_ASC_NODE":61.7915,"ARG_OF_PERICENTER":315.7653,"MEAN_ANOMALY":261.0398,"EPHEMERIS_TYPE":0,"CLASSIFICATION_TYPE":"U","NORAD_CAT_ID":27714,"ELEMENT_SET_NO":999,"REV_AT_EPOCH":8399,"BSTAR":0,"MEAN_MOTION_DOT":-9.1e-7,"MEAN_MOTION_DDOT":0},{"OBJECT_NAME":"ARIANE 5 R/B","OBJECT_ID":"2003-013C","EPOCH":"2026-04-05T01:53:55.867776","MEAN_MOTION":2.24037062,"ECCENTRICITY":0.70770231,"INCLINATION":1.3112,"RA_OF_ASC_NODE":266.3257,"ARG_OF_PERICENTER":336.5164,"MEAN_ANOMALY":291.0136,"EPHEMERIS_TYPE":0,"CLASSIFICATION_TYPE":"U","NORAD_CAT_ID":27716,"ELEMENT_SET_NO":999,"REV_AT_EPOCH":18819,"BSTAR":0.0011206378,"MEAN_MOTION_DOT":-7.6e-7,"MEAN_MOTION_DDOT":0},{"OBJECT_NAME":"ARIANE 5 DEB [SYLDA]","OBJECT_ID":"2003-013D","EPOCH":"2026-04-05T00:12:43.629984","MEAN_MOTION":2.22470273,"ECCENTRICITY":0.70824227,"INCLINATION":1.8318,"RA_OF_ASC_NODE":279.0085,"ARG_OF_PERICENTER":297.4694,"MEAN_ANOMALY":300.9684,"EPHEMERIS_TYPE":0,"CLASSIFICATION_TYPE":"U","NORAD_CAT_ID":27717,"ELEMENT_SET_NO":999,"REV_AT_EPOCH":18689,"BSTAR":0.00044026512,"MEAN_MOTION_DOT":-1.52e-6,"MEAN_MOTION_DDOT":0},{"OBJECT_NAME":"ASIASAT 4","OBJECT_ID":"2003-014A","EPOCH":"2026-04-05T05:19:38.459424","MEAN_MOTION":1.00272649,"ECCENTRICITY":0.0002636,"INCLINATION":4.5186,"RA_OF_ASC_NODE":76.6448,"ARG_OF_PERICENTER":300.9625,"MEAN_ANOMALY":43.3822,"EPHEMERIS_TYPE":0,"CLASSIFICATION_TYPE":"U","NORAD_CAT_ID":27718,"ELEMENT_SET_NO":999,"REV_AT_EPOCH":4456,"BSTAR":0,"MEAN_MOTION_DOT":-2.19e-6,"MEAN_MOTION_DDOT":0},{"OBJECT_NAME":"ARIANE 1 DEB","OBJECT_ID":"1979-104S","EPOCH":"2026-03-28T01:36:47.905632","MEAN_MOTION":1.93132483,"ECCENTRICITY":0.73106453,"INCLINATION":16.5595,"RA_OF_ASC_NODE":25.029,"ARG_OF_PERICENTER":149.6167,"MEAN_ANOMALY":288.5818,"EPHEMERIS_TYPE":0,"CLASSIFICATION_TYPE":"U","NORAD_CAT_ID":27732,"ELEMENT_SET_NO":999,"REV_AT_EPOCH":8447,"BSTAR":0.0019547387,"MEAN_MOTION_DOT":-3.57e-6,"MEAN_MOTION_DDOT":0},{"OBJECT_NAME":"COSMOS 2397","OBJECT_ID":"2003-015A","EPOCH":"2026-04-04T07:31:23.121120","MEAN_MOTION":1.00488492,"ECCENTRICITY":0.00434724,"INCLINATION":12.6204,"RA_OF_ASC_NODE":20.6008,"ARG_OF_PERICENTER":7.4647,"MEAN_ANOMALY":180.0628,"EPHEMERIS_TYPE":0,"CLASSIFICATION_TYPE":"U","NORAD_CAT_ID":27775,"ELEMENT_SET_NO":999,"REV_AT_EPOCH":8417,"BSTAR":0,"MEAN_MOTION_DOT":-1.85e-6,"MEAN_MOTION_DDOT":0},{"OBJECT_NAME":"SL-12 R/B(2)","OBJECT_ID":"2003-015F","EPOCH":"2026-04-04T16:49:50.458080","MEAN_MOTION":1.00272221,"ECCENTRICITY":0.00104224,"INCLINATION":12.6689,"RA_OF_ASC_NODE":20.9286,"ARG_OF_PERICENTER":34.1811,"MEAN_ANOMALY":162.1944,"EPHEMERIS_TYPE":0,"CLASSIFICATION_TYPE":"U","NORAD_CAT_ID":27780,"ELEMENT_SET_NO":999,"REV_AT_EPOCH":8376,"BSTAR":0,"MEAN_MOTION_DOT":-3.4e-6,"MEAN_MOTION_DDOT":0},{"OBJECT_NAME":"ATLAS AGENA R/B","OBJECT_ID":"1968-063B","EPOCH":"2026-04-04T11:00:37.505088","MEAN_MOTION":1.01777339,"ECCENTRICITY":0.10156845,"INCLINATION":4.5725,"RA_OF_ASC_NODE":266.5097,"ARG_OF_PERICENTER":264.7654,"MEAN_ANOMALY":83.2332,"EPHEMERIS_TYPE":0,"CLASSIFICATION_TYPE":"U","NORAD_CAT_ID":27785,"ELEMENT_SET_NO":999,"REV_AT_EPOCH":2563,"BSTAR":0,"MEAN_MOTION_DOT":-2.81e-6,"MEAN_MOTION_DDOT":0},{"OBJECT_NAME":"ATLAS AGENA R/B","OBJECT_ID":"1969-036B","EPOCH":"2026-04-03T21:17:17.068704","MEAN_MOTION":1.03853964,"ECCENTRICITY":0.1061165,"INCLINATION":14.3085,"RA_OF_ASC_NODE":27.2722,"ARG_OF_PERICENTER":247.3482,"MEAN_ANOMALY":101.1139,"EPHEMERIS_TYPE":0,"CLASSIFICATION_TYPE":"U","NORAD_CAT_ID":27786,"ELEMENT_SET_NO":999,"REV_AT_EPOCH":2604,"BSTAR":0,"MEAN_MOTION_DOT":-2.07e-6,"MEAN_MOTION_DDOT":0},{"OBJECT_NAME":"ATLAS AGENA R/B","OBJECT_ID":"1970-069B","EPOCH":"2026-04-04T08:52:11.201376","MEAN_MOTION":1.01704524,"ECCENTRICITY":0.11976648,"INCLINATION":11.5561,"RA_OF_ASC_NODE":136.8347,"ARG_OF_PERICENTER":187.8996,"MEAN_ANOMALY":170.1749,"EPHEMERIS_TYPE":0,"CLASSIFICATION_TYPE":"U","NORAD_CAT_ID":27787,"ELEMENT_SET_NO":999,"REV_AT_EPOCH":2626,"BSTAR":0,"MEAN_MOTION_DOT":4.7e-7,"MEAN_MOTION_DDOT":0},{"OBJECT_NAME":"COSMOS 1261 DEB","OBJECT_ID":"1981-031H","EPOCH":"2026-04-04T01:53:23.853120","MEAN_MOTION":2.01734308,"ECCENTRICITY":0.69514372,"INCLINATION":65.435,"RA_OF_ASC_NODE":2.7621,"ARG_OF_PERICENTER":17.8304,"MEAN_ANOMALY":357.6593,"EPHEMERIS_TYPE":0,"CLASSIFICATION_TYPE":"U","NORAD_CAT_ID":27796,"ELEMENT_SET_NO":999,"REV_AT_EPOCH":18437,"BSTAR":0,"MEAN_MOTION_DOT":-5.86e-6,"MEAN_MOTION_DDOT":0},{"OBJECT_NAME":"COSMOS 1285 DEB","OBJECT_ID":"1981-071P","EPOCH":"2026-04-05T04:24:53.179776","MEAN_MOTION":1.97647768,"ECCENTRICITY":0.71243293,"INCLINATION":64.4189,"RA_OF_ASC_NODE":75.7622,"ARG_OF_PERICENTER":35.245,"MEAN_ANOMALY":355.4648,"EPHEMERIS_TYPE":0,"CLASSIFICATION_TYPE":"U","NORAD_CAT_ID":27800,"ELEMENT_SET_NO":999,"REV_AT_EPOCH":19196,"BSTAR":0,"MEAN_MOTION_DOT":-4.23e-6,"MEAN_MOTION_DDOT":0},{"OBJECT_NAME":"COSMOS 1285 DEB","OBJECT_ID":"1981-071Q","EPOCH":"2026-03-30T04:28:52.817952","MEAN_MOTION":1.97985244,"ECCENTRICITY":0.72370969,"INCLINATION":64.052,"RA_OF_ASC_NODE":48.2729,"ARG_OF_PERICENTER":38.172,"MEAN_ANOMALY":355.289,"EPHEMERIS_TYPE":0,"CLASSIFICATION_TYPE":"U","NORAD_CAT_ID":27801,"ELEMENT_SET_NO":999,"REV_AT_EPOCH":18200,"BSTAR":0,"MEAN_MOTION_DOT":-8.73e-6,"MEAN_MOTION_DDOT":0},{"OBJECT_NAME":"GSAT-2","OBJECT_ID":"2003-018A","EPOCH":"2026-04-04T23:16:26.527872","MEAN_MOTION":0.99844331,"ECCENTRICITY":0.00120232,"INCLINATION":11.0356,"RA_OF_ASC_NODE":42.3164,"ARG_OF_PERICENTER":340.4717,"MEAN_ANOMALY":206.1032,"EPHEMERIS_TYPE":0,"CLASSIFICATION_TYPE":"U","NORAD_CAT_ID":27807,"ELEMENT_SET_NO":999,"REV_AT_EPOCH":8370,"BSTAR":0,"MEAN_MOTION_DOT":1.29e-6,"MEAN_MOTION_DDOT":0},{"OBJECT_NAME":"HELLAS-SAT 2","OBJECT_ID":"2003-020A","EPOCH":"2026-04-05T05:51:02.870208","MEAN_MOTION":1.0027283,"ECCENTRICITY":0.00057591,"INCLINATION":7.1741,"RA_OF_ASC_NODE":68.7424,"ARG_OF_PERICENTER":271.8472,"MEAN_ANOMALY":290.7133,"EPHEMERIS_TYPE":0,"CLASSIFICATION_TYPE":"U","NORAD_CAT_ID":27811,"ELEMENT_SET_NO":999,"REV_AT_EPOCH":4211,"BSTAR":0,"MEAN_MOTION_DOT":-8.0e-7,"MEAN_MOTION_DDOT":0},{"OBJECT_NAME":"BEIDOU-1 G3","OBJECT_ID":"2003-021A","EPOCH":"2026-04-05T00:53:54.124800","MEAN_MOTION":0.99774219,"ECCENTRICITY":0.00193437,"INCLINATION":11.2383,"RA_OF_ASC_NODE":41.8392,"ARG_OF_PERICENTER":304.1162,"MEAN_ANOMALY":249.236,"EPHEMERIS_TYPE":0,"CLASSIFICATION_TYPE":"U","NORAD_CAT_ID":27813,"ELEMENT_SET_NO":999,"REV_AT_EPOCH":8357,"BSTAR":0,"MEAN_MOTION_DOT":8.3e-7,"MEAN_MOTION_DDOT":0}]
