TITAN 4 CENTAUR R/B     
1 27712U 03012B   26093.92440966  .00000064  00000+0  00000+0 0  9993
2 27712  11.0746  23.7239 0024299 277.8321  81.8464  1.00589002 25049
INSAT-3A                
1 27714U 03013A   26094.99767087 -.00000091  00000+0  00000+0 0  9991
2 27714   8.6556  61.7915 0011501 315.7653 261.0398  0.99796915 83993
ARIANE 5 R/B            
1 27716U 03013C   26095.07911884 -.00000076  00000+0  11206-2 0  9995
2 27716   1.3112 266.3257 7077023 336.5164 291.0136  2.24037062188193
ARIANE 5 DEB [SYLDA]    
1 27717U 03013D   26095.00883831 -.00000152  00000+0  44027-3 0  9992
2 27717   1.8318 279.0085 7082422 297.4694 300.9684  2.22470273186895
ASIASAT 4               
1 27718U 03014A   26095.22197291 -.00000219  00000+0  00000+0 0  9999
2 27718   4.5186  76.6448 0002636 300.9625  43.3822  1.00272649 44560
ARIANE 1 DEB            
1 27732U 79104S   26087.06722113 -.00000357  00000+0  19547-2 0  9990
2 27732  16.5595  25.0290 7310645 149.6167 288.5818  1.93132483 84479
COSMOS 2397             
1 27775U 03015A   26094.31346205 -.00000185  00000+0  00000+0 0  9995
2 27775  12.6204  20.6008 0043472   7.4647 180.0628  1.00488492 84170
SL-12 R/B(2)            
1 27780U 03015F   26094.70127845 -.00000340  00000+0  00000+0 0  9994
2 27780  12.6689  20.9286 0010422  34.1811 162.1944  1.00272221 83760
ATLAS AGENA R/B         
1 27785U 68063B   26094.45876742 -.00000281  00000+0  00000+0 0  9996
2 27785   4.5725 266.5097 1015684 264.7654  83.2332  1.01777339 25633
ATLAS AGENA R/B         
1 27786U 69036B   26093.88700311 -.00000207  00000+0  00000+0 0  9990
2 27786  14.3085  27.2722 1061165 247.3482 101.1139  1.03853964 26042
ATLAS AGENA R/B         
1 27787U 70069B   26094.36957409  .00000047  00000+0  00000+0 0  9996
2 27787  11.5561 136.8347 1197664 187.8996 170.1749  1.01704524 26265
COSMOS 1261 DEB         
1 27796U 81031H   26094.07874830 -.00000586  00000+0  00000+0 0  9990
2 27796  65.4350   2.7621 6951437  17.8304 357.6593  2.01734308184371
COSMOS 1285 DEB         
1 27800U 81071P   26095.18394884 -.00000423  00000+0  00000+0 0  9999
2 27800  64.4189  75.7622 7124329  35.2450 355.4648  1.97647768191963
COSMOS 1285 DEB         
1 27801U 81071Q   26089.18672243 -.00000873  00000+0  00000+0 0  9990
2 27801  64.0520  48.2729 7237096  38.1720 355.2890  1.97985244182006
GSAT-2                  
1 27807U 03018A   26094.96975148  .00000129  00000+0  00000+0 0  9996
2 27807  11.0356  42.3164 0012023 340.4717 206.1032  0.99844331 83709
HELLAS-SAT 2            
1 27811U 03020A   26095.24378322 -.00000080  00000+0  00000+0 0  9994
2 27811   7.1741  68.7424 0005759 271.8472 290.7133  1.00272830 42115
BEIDOU-1 G3             
1 27813U 03021A   26095.03743200  .00000083  00000+0  00000+0 0  9997
2 27813  11.2383  41.8392 0019343 304.1162 249.2360  0.99774219 83572
